#cP2009 11 28  0  0  0.00000000      96 ORBIT IGS05 BHN ESOC                    
## 1559 518400.00000000   900.00000000 55163 0.0000000000000                    
+   45   G32G25G26G27G30G03G04G06G08G09G10G14G13G28G21G11G22                    
+        G20G18G16G19G23G02G31G17G12G15G29G07G05R07R10R11R13                    
+        R14R15R17R19R20R23R18R21R03R02R08  0  0  0  0  0  0                    
+          0  0  0  0  0  0  0  0  0  0  0  0  0  0  0  0  0                    
+          0  0  0  0  0  0  0  0  0  0  0  0  0  0  0  0  0                    
++         5  5  5  5  5  5  5  5  6  6  6  5  5  5  5  5  5                    
++         5  5  4  5  5  5  5  5  5  5  5  5  5  6  7  7  6                    
++         7  6  6  6  7  7  7  7  6  6  6  0  0  0  0  0  0                    
++         0  0  0  0  0  0  0  0  0  0  0  0  0  0  0  0  0                    
++         0  0  0  0  0  0  0  0  0  0  0  0  0  0  0  0  0                    
%c M  cc GPS ccc cccc cccc cccc cccc ccccc ccccc ccccc ccccc                    
%c cc cc ccc ccc cccc cccc cccc cccc ccccc ccccc ccccc ccccc                    
%f  0.0000000  0.000000000  0.00000000000  0.000000000000000                    
%f  0.0000000  0.000000000  0.00000000000  0.000000000000000                    
%i    0    0    0    0      0      0      0      0         0                    
%i    0    0    0    0      0      0      0      0         0                    
/* CCCCCCCCCCCCCCCCCCCCCCCCCCCCCCCCCCCCCCCCCCCCCCCCCCCCCCCCC                    
/* CCCCCCCCCCCCCCCCCCCCCCCCCCCCCCCCCCCCCCCCCCCCCCCCCCCCCCCCC                    
/* CCCCCCCCCCCCCCCCCCCCCCCCCCCCCCCCCCCCCCCCCCCCCCCCCCCCCCCCC                    
/* PCV:IGS05_1461 OL/AL:FES2004  NONE     YN ORB:CoN CLK:CoN                    
*  2009 11 28 17  0  0.00000000                                                 
PG32  18404.761075    334.215633  19408.951472    148.808202                    
PG25  13364.583906  -6391.305525 -21699.503463     35.915875                    
PG26 -12630.272298  10828.858277  20287.496150      1.023915                    
PG27 -17719.644624  -9871.843663  17871.106934    103.763076                    
PG30 -19256.562715  15863.056847   8636.935730    197.061798                    
PG03  20366.094903  11014.739472 -13662.089663    480.707083                    
PG04  -5601.008957 -25199.042881   5191.158623   -381.117068                    
PG06  17176.841330  13182.650954 -15270.308368    262.911875                    
PG08   2835.376498 -22016.931418 -14195.431430      0.279344                    
PG09 -16707.282783  -7133.297643  18736.250592     91.053642                    
PG10  -7983.272107 -13872.170955 -21309.190214    -29.302607                    
PG14  -2444.513853  14500.525551  22258.454913    -18.738004                    
PG13  19168.930346  -7147.051048 -17070.818432    306.417267                    
PG28  11283.513000 -22374.577352   8754.952334    -25.114026                    
PG21  -8318.142202  16712.148571 -18364.572611    -24.208110                    
PG11  19072.218799   1716.906331  18288.656944    -31.520861                    
PG22  -9308.124195  22619.612315  10421.392806    185.268644                    
PG20  20228.845775  -9552.784754  14150.505415     66.617150                    
PG18 -17434.021918  19739.784854   -734.214918     30.905623                    
PG16   4583.035234  16230.823648 -20407.508275    -13.522709                    
PG19  25070.985414   8466.925345  -3611.953359     -1.089786                    
PG23  25956.871905   -219.243337  -6368.502522    385.321415                    
PG02 -13607.551044 -22352.162733  -5807.781267    197.096917                    
PG31   7183.697345  25263.793671   3568.057854    -60.030667                    
PG17   1422.438429 -15250.030756  21780.310188    106.710012                    
PG12 -19334.824089   4541.944182  17626.853289   -183.780839                    
PG15 -24820.972838  -7603.736699  -5809.440052   -319.351472                    
PG29 -21728.385480   5936.409018 -13950.644232     77.818290                    
PG07  10589.341413 -12419.406928 -20931.486090      6.911443                    
PG05 -11270.102685 -10255.531890 -21764.930697    -36.855295                    
PR07  19231.175024 -13036.194640  10547.319890     68.003950                    
PR10  10258.181146  -2589.061406 -23223.078781   -129.006706                    
PR11   2565.828307 -19608.408904 -16158.014740   -112.852625                    
PR13 -12008.613272 -14972.461451  16778.383318   -254.073136                    
PR14 -10232.396709   2671.229864  23200.234401    -17.901464                    
PR15  -2258.017610  19610.608674  16101.303281    113.688832                    
PR17 -22279.285671    -72.021455 -12506.895036   -277.156217                    
PR19  10824.386146  12463.888730 -19452.242301   -112.681757                    
PR20  23517.898392   8790.017956  -4693.121893    -69.824404                    
PR23 -11531.239243 -12505.669488  18988.496730    -12.876414                    
PR18  -7768.987317   8924.485486 -22565.138378    -12.028030                    
PR21  22217.290733    -71.365065  12427.135109   -171.134875                    
PR03 -19789.835228  12362.587733 -10295.341564    -56.849863                    
PR02 -13092.320537  -1736.461046 -21817.958079   -110.396130                    
PR08  15057.123677 -19308.122654  -7140.055167    -80.817712                    
*  2009 11 28 17 15  0.00000000                                                 
PG32  17004.433302   2064.968444  20593.480985    148.801354                    
PG25  14549.180851  -4141.280191 -21469.503295     35.928075                    
PG26 -14917.104289  10343.769907  19022.527048      1.021885                    
PG27 -18418.187401 -11550.360545  15990.828310    103.766022                    
PG30 -18797.429418  14739.721870  11162.982457    197.064121                    
PG03  18743.734416  11236.057998 -15674.412293    480.712482                    
PG04  -4994.960708 -24611.141237   7889.161080   -381.133866                    
PG06  15281.545821  13259.645505 -17079.891486    262.912782                    
PG08   3558.422205 -20409.209806 -16327.930778      0.278737                    
PG09 -17501.426703  -9155.106402  17123.115533     91.054636                    
PG10  -6450.313492 -15678.803135 -20525.306728    -29.303607                    
PG14  -4910.361625  14079.411724  22109.157164    -18.733732                    
PG13  20929.091601  -6709.890057 -15047.748262    306.417600                    
PG28  11967.550628 -22849.833504   6035.067284    -25.114129                    
PG21  -9335.809031  14691.868882 -19600.689779    -24.210396                    
PG11  20109.512251   3525.691120  16917.501678    -31.522695                    
PG22 -10181.721338  23242.277632   7878.118014    185.268160                    
PG20  19397.603028  -7984.453533  16134.405232     66.616300                    
PG18 -17531.868326  19309.981193  -3555.476005     30.908181                    
PG16   3084.661760  17952.012145 -19192.826304    -13.526254                    
PG19  24464.379176   8589.063864  -6368.257829     -1.091651                    
PG23  26487.696462     53.474065  -3588.855947    385.320605                    
PG02 -13560.006649 -22916.014366  -3077.899183    197.100807                    
PG31   6769.654201  24845.925163   6385.883896    -60.029673                    
PG17   3869.294035 -14889.178681  21714.358158    106.713313                    
PG12 -18165.996077   2794.755857  19181.902156   -183.776438                    
PG15 -23978.761181  -7766.811159  -8489.034580   -319.350791                    
PG29 -23159.527365   5505.142153 -11646.222693     77.820934                    
PG07  11592.591378 -10203.866925 -21600.777388      6.910853                    
PG05  -9768.934561 -12218.981498 -21467.598572    -36.849577                    
PR07  18201.492837 -11984.588308  13266.372668     68.006374                    
PR10  11113.946009    129.600449 -22979.414093   -129.005808                    
PR11   3060.332167 -17538.292691 -18302.054134   -112.853283                    
PR13 -12684.510500 -16782.620552  14400.083594   -254.074358                    
PR14 -11084.817001    -52.779830  22954.577339    -17.897878                    
PR15  -2763.225552  17542.251014  18272.411616    113.690392                    
PR17 -23642.160882   -250.760683  -9691.260013   -277.156938                    
PR19   8417.086961  11804.620631 -20993.713285   -112.682579                    
PR20  22807.608301   8455.215469  -7787.097477    -69.824471                    
PR23  -9173.476694 -11844.033480  20629.524128    -12.876359                    
PR18 -10442.860499   8336.913543 -21684.702625    -12.027941                    
PR21  23575.254860    113.945942   9598.166463   -171.136636                    
PR03 -18696.504552  11413.272272 -13061.724809    -56.848492                    
PR02 -11157.902384  -3683.567792 -22634.425710   -110.398079                    
PR08  15434.987255 -19902.419372  -4024.623636    -80.816815                    
EOF                                                                             
